#dP2022 12  1 18  0  0.00000000      96 __u+U ITR00 EXT  IAC
## 2238 410400.00000000   900.00000000 59914 0.7500000000000
+  117   C06C07C08C09C10C11C12C13C14C16C19C20C21C22C23C24C25
+        C26C27C28C29C30C32C33C34C35C36C37C38C39C40C41C42C43
+        C44C45C46E01E02E03E04E05E07E09E10E11E12E13E14E15E18
+        E19E21E24E25E26E27E30E31E33E34E36G01G02G03G04G05G06
+        G07G08G09G10G11G12G13G14G15G16G17G18G19G20G21G22G23
+        G24G25G26G27G29G30G31G32J02J03J04R01R02R03R04R05R07
+        R08R09R11R12R13R14R15R17R18R19R20R21R22R24R25  0  0
++         9 10 11  9  8 10  9 12  9 11  7  7  8  8  9  9  8
++         8  7  8  8  7  9  9  8  8  6  8 11  8  9  7  8  9
++         8  8  8  7  7  8  6  7  8  6 10  8  7  8  9  7  7
++         9  9  7  8  8  8  9  8  8  8  7  6  8  7  8  7  7
++         7  7  8  6  8  9  8  8  8  7  8  8  8  8  7  7  8
++         8  9  7  7  7  8  7  8  9  9  9  9  8  8  7 10  8
++         8 11  7  9  9  9  9  8  9 10  9  9  7  8  9  0  0
%c M  cc GPS ccc cccc cccc cccc cccc ccccc ccccc ccccc ccccc
%c cc cc ccc ccc cccc cccc cccc cccc ccccc ccccc ccccc ccccc
%f  0.0000000  0.000000000  0.00000000000  0.000000000000000
%f  0.0000000  0.000000000  0.00000000000  0.000000000000000
%i    0    0    0    0      0      0      0      0         0
%i    0    0    0    0      0      0      0      0         0
/* IAC                                ULTRA-RAPID PREDICTION
/* S/V CLOCKS ARE ALIGNED TO GNSS TIME                      
/* G:C1WC2W R:C1PC2P E:C1XC5X C:C2IC6I J:C1CC2S             
/* PCV:IGS14_2233 OL/AL:FES2004  NONE     YN ORB:CoN CLK:CoN
*  2022 12 01 19 45  0.00000000
PC06 -14095.865073  25565.834995 -30513.839361    225.780527
PC07 -10096.016707  40767.194458  -2724.368006    135.628075
PC08   1112.974211  27236.230690  32241.063108    518.605298
PC09  -6157.505879  25022.782383 -33076.904306   -793.205029
PC10  -3931.827601  41518.461312   4356.019406     58.963174
PC11  -1728.307965  16334.888928  22629.114241   -260.305520
PC12 -19721.453965  15536.198252  12213.271724    326.350859
PC13   7980.977970  31334.219495  27367.427656    147.487336
PC14    -50.674783  27166.829784  -6258.999820    226.248980
PC16 -20168.858623  24406.372043 -27808.518367    108.618202
PC19  -6416.055906 -22888.482935  14645.531010   -907.846013
PC20   5405.607098 -27354.998234  -1354.492507    819.982619
PC21 -14876.304261  15571.629195  17749.249972   -931.601744
PC22 -15077.818496  -5028.028029  22931.353764   -763.163946
PC23  23835.140660  11892.082682   8337.597297   -873.547240
PC24  -2531.946767  17830.215644 -21339.218279   -731.804439
PC25  16683.019298  20755.573643  -8396.436628     33.078618
PC26 -17331.485098   5669.211140 -21129.117475    -43.820492
PC27  24848.844845 -12009.842723  -4106.593059     59.822020
PC28  25013.373664     98.296796  12386.188802     42.381734
PC29 -10272.428221 -12795.187331 -22573.544519     48.022751
PC30  10744.380764 -18114.458044 -18300.075099      1.126964
PC32  14778.818083 -15613.018255 -17784.321404   -697.650472
PC33   6495.464403  22916.692698 -14534.811926   -901.103423
PC34  -9566.109989  18133.632223  18934.536240     51.681600
PC35 -24359.356515   -456.899905 -13639.935012    113.723582
PC36 -15691.507676 -21255.885174   8983.947242   -799.143383
PC37  18406.078800  -4014.222105  20605.785755   -898.191962
PC38  -6868.818806  24241.946462  33872.026606     42.019531
PC39 -23154.741114  25042.035421 -24918.890805     -0.971091
PC40 -16661.693822  38067.066708  -6522.769805     -9.272713
PC41  14972.237056   5634.198872 -22819.623090   -334.674584
PC42  -6171.976607  27085.760802   2613.648909   -769.623071
PC43   9448.059599  13344.508399  22608.228405     27.913268
PC44 -24508.255546  12809.215210   3856.770666    131.583002
PC45 -23806.796692 -11625.300606  -8722.369857    -29.365881
PC46    696.802232 -18610.265957  20765.303721    -16.722997
PE01  16519.845186  -3159.713644  24359.938768   -573.968609
PE02 -16415.020933   3499.065987 -24381.863429      5.987796
PE03 -23068.926918  13486.950398  12715.962846   -625.546163
PE04  15808.611830 -24471.927359   5217.549171     -4.905413
PE05 -16932.060808  -5697.621978  23596.725777   -119.222047
PE07   1017.734105  21271.464905 -20560.261882     -3.770769
PE09   -769.987027 -21309.499604  20528.016434   -748.906174
PE10    857.766615 -16081.142578 -24837.020505   -494.774387
PE11 -11406.019014 -16392.876607 -21854.556811   1063.658553
PE12  11888.472242 -13408.996882 -23553.721662   -307.971431
PE13  10440.474616  16403.300980  22326.767253    430.487846
PE14 -22580.536522   9499.788748  -9728.560912     72.498717
PE15 -12174.965579  13250.153729  23512.653915    703.771953
PE18  21179.971509 -22355.119238  -3426.513485   -678.135845
PE19  23021.263984 -11138.800980 -14898.432666  -3853.008738
PE21  18062.965024  16350.784635  16816.594881   -497.874110
PE24  -8705.578700 -28218.890073   1764.760161   -978.216937
PE25 -17999.054872 -16624.352553 -16593.454379   -593.965427
PE26  27070.754823   9566.489968   7227.718935  -1893.949629
PE27   9426.577806  28055.327082   -867.304783   -452.952604
PE30  -5335.756568  22630.759086 -18338.163589  -1043.577638
PE31   4692.008489 -23115.938318  17884.939309   -509.576611
PE33  27461.684504  -2284.772376 -10797.973871   -455.659708
PE34 -27376.682222   2458.199893  10965.465346    -17.446861
PE36 -26702.912583  -9905.167688  -8057.576848   -469.071568
PG01 -19061.703603 -13962.284518 -12779.971363    243.699469
PG02  21286.162059  11600.038589  11238.908610   -635.197287
PG03 -12276.680443 -21831.318773   8878.450303   -374.854607
PG04 -10502.622784 -10984.780737  21784.745954    -76.440209
PG05   5439.563304  25599.995641   3960.705882   -106.438427
PG06 -17623.505100   7824.703139  18367.669311    531.095978
PG07 -26034.018858  -6404.204911   -580.917453    280.278434
PG08   -835.152775 -18487.007590 -18951.744128    -96.544811
PG09 -18632.302816    308.203846  18863.103940   -260.185066
PG10  13169.844773  -7317.005854 -21684.320561    -14.257437
PG11  -5294.264850  14197.328690  21821.079760    -49.113629
PG12  10296.280245  23116.770901   7967.595407   -310.869581
PG13  -8227.947097  19899.300038 -15599.975154    434.515151
PG14 -14684.370260   4835.093502 -21585.862988    -74.950194
PG15   3714.494763  18585.679192 -18948.212678     -7.709376
PG16    867.973816 -25032.595045   7809.578989   -526.627561
PG17 -21995.646661  11643.514412  -8945.655497    682.501687
PG18  25972.068116   4725.559162  -3568.304591    -42.840434
PG19 -19881.224669  17339.932548   1153.444667    244.820292
PG20  -2323.356371  21564.105974  15500.886540    466.383220
PG21 -12603.180507 -14795.823285 -17832.951130    154.828903
PG22  17545.675779 -19366.828029   4602.671459    375.974362
PG23  16182.695598   4904.030817 -20521.128147     -0.529013
PG24  16146.106811  14622.104719 -15814.895840     34.905524
PG25  15652.535616  14705.911793  15504.653789    398.006477
PG26   7128.426190 -18541.161326  17371.138267    237.350928
PG27   9911.543732 -21586.882264 -11671.091340    164.422570
PG29  17198.757526   2852.292581  20019.281341   -571.085550
PG30 -23637.484053   2718.522914 -11973.269805   -536.051828
PG31  16898.333731  -8839.366332  18512.326055   -201.945860
PG32  20876.273613 -14639.830740  -6902.610595   -314.990065
PJ02 -19763.715548  25265.842084 -22713.151901     -0.231638
PJ03 -29826.376043  26245.075240  19373.129988     -5.751303
PJ04 -28694.532560  27967.450282  19133.494331    114.129631
PR01  10434.756642 -22564.375118  -5730.874138     18.811139
PR02   1556.897545 -21837.362401  13066.754763    -23.409229
PR03  -8396.327024  -8289.802669  22646.222690     68.276778
PR04 -13272.406699   9545.971143  19609.222115    166.971951
PR05 -11158.896642  22202.987218   5837.169806    103.834520
PR07   8662.372389   7630.510318 -22718.773601     45.315445
PR08  13298.312136  -9711.212070 -19415.955618    -68.379332
PR09  11198.716619  20388.447112 -10366.175364     90.654600
PR11  15622.363755   3648.656527  19835.912663     17.620866
PR12   3009.880400 -12657.052578  21959.881027     23.294876
PR13 -10078.293892 -20198.568250  11857.666093    -29.510888
PR14 -18412.276121 -16266.055562  -6877.748141     24.064525
PR15 -15183.660930  -2824.082339 -20283.981898     92.611511
PR17 -19769.318307  -3800.805656 -15622.521991    583.106231
PR18 -25196.265341   4133.536647     38.958026     54.716421
PR19 -18752.043166   9117.700867  14694.105434   -213.011673
PR20   1861.774167  10192.218713  23322.922548    -83.189319
PR21  20862.144617   3099.844817  14375.842915   -354.130900
PR22  25248.671319  -3505.624123   -744.693805     19.663934
PR24  -2982.938329 -10457.804925 -23049.597915    130.020364
PR25  19326.459484   5160.306055  15851.793584     47.771062
EOF
